[{"OBJECT_NAME":"STARLINK-2411","OBJECT_ID":"2021-018AR","EPOCH":"2026-03-09T17:28:27.682752","MEAN_MOTION":15.30188902,"ECCENTRICITY":0.00010058,"INCLINATION":53.1586,"RA_OF_ASC_NODE":244.8151,"ARG_OF_PERICENTER":106.3938,"MEAN_ANOMALY":253.7173,"EPHEMERIS_TYPE":0,"CLASSIFICATION_TYPE":"U","NORAD_CAT_ID":47826,"ELEMENT_SET_NO":999,"REV_AT_EPOCH":27670,"BSTAR":0.00014913487,"MEAN_MOTION_DOT":4.059e-5,"MEAN_MOTION_DDOT":0},{"OBJECT_NAME":"OBJECT F","OBJECT_ID":"2022-023F","EPOCH":"2026-03-09T23:55:35.397408","MEAN_MOTION":15.18257694,"ECCENTRICITY":0.01194645,"INCLINATION":63.4547,"RA_OF_ASC_NODE":250.628,"ARG_OF_PERICENTER":343.8947,"MEAN_ANOMALY":15.838,"EPHEMERIS_TYPE":0,"CLASSIFICATION_TYPE":"U","NORAD_CAT_ID":51951,"ELEMENT_SET_NO":999,"REV_AT_EPOCH":22265,"BSTAR":0.00028900174,"MEAN_MOTION_DOT":6.929e-5,"MEAN_MOTION_DDOT":0}]
